{"RECORDS":[{"CCSDS_OMM_VERS":42398.83,"CREATION_DATE":"2082-07-13T01:03:16.376Z","ORIGINATOR":"Schmidt - Baumbach","OBJECT_NAME":"vz)^9%iTNm","OBJECT_ID":"3DoLYb%}jn","CENTER_NAME":"CcxuZ)p@W(","REF_FRAME":9,"REF_FRAME_EPOCH":"2053-04-25T06:10:44.498Z","TIME_SYSTEM":8,"MEAN_ELEMENT_THEORY":2,"COMMENT":"+!}+tmy*Y>","EPOCH":"1993-08-13T14:10:27.034Z","SEMI_MAJOR_AXIS":58471.51,"MEAN_MOTION":17121.28,"ECCENTRICITY":12854.54,"INCLINATION":68719.17,"RA_OF_ASC_NODE":93312.21,"ARG_OF_PERICENTER":71329.08,"MEAN_ANOMALY":45893.04,"GM":76450.35,"MASS":71079.34,"SOLAR_RAD_AREA":62712.4,"SOLAR_RAD_COEFF":44607.55,"DRAG_AREA":71070.82,"DRAG_COEFF":75899.69,"EPHEMERIS_TYPE":3,"CLASSIFICATION_TYPE":"er\\l1Lh'Nd","NORAD_CAT_ID":3016893765,"ELEMENT_SET_NO":977697254,"REV_AT_EPOCH":68600.78,"BSTAR":85907.36,"MEAN_MOTION_DOT":25182.91,"MEAN_MOTION_DDOT":28646.5,"COV_REF_FRAME":1,"CX_X":69696.61,"CY_X":73426.01,"CY_Y":4010.82,"CZ_X":60752.36,"CZ_Y":54381.82,"CZ_Z":91783.6,"CX_DOT_X":76433.09,"CX_DOT_Y":55607.15,"CX_DOT_Z":80690.43,"CX_DOT_X_DOT":31807.12,"CY_DOT_X":91087.31,"CY_DOT_Y":13625.06,"CY_DOT_Z":95388.42,"CY_DOT_X_DOT":1048.33,"CY_DOT_Y_DOT":1762.64,"CZ_DOT_X":43303.28,"CZ_DOT_Y":22493.37,"CZ_DOT_Z":92121.76,"CZ_DOT_X_DOT":17049.58,"CZ_DOT_Y_DOT":32388.23,"CZ_DOT_Z_DOT":9830.2,"USER_DEFINED_BIP_0044_TYPE":4204145336,"USER_DEFINED_OBJECT_DESIGNATOR":"9Y,2;v-Dhc","USER_DEFINED_EARTH_MODEL":"c%SfdN&u)d","USER_DEFINED_EPOCH_TIMESTAMP":80433.16,"USER_DEFINED_MICROSECONDS":64340.64}]}